<?xml version="1.0" encoding="UTF-8"?>
<ndm xmlns:xsi="http://www.w3.org/2001/XMLSchema-instance" xsi:noNamespaceSchemaLocation="https://sanaregistry.org/r/ndmxml_unqualified/ndmxml-2.0.0-master-2.0.xsd">
<omm id="CCSDS_OMM_VERS" version="2.0">
<header><CREATION_DATE/><ORIGINATOR/></header><body><segment><metadata><OBJECT_NAME>ONEWEB-0311</OBJECT_NAME><OBJECT_ID>2021-075Y</OBJECT_ID><CENTER_NAME>EARTH</CENTER_NAME><REF_FRAME>TEME</REF_FRAME><TIME_SYSTEM>UTC</TIME_SYSTEM><MEAN_ELEMENT_THEORY>SGP4</MEAN_ELEMENT_THEORY></metadata><data><meanElements><EPOCH>2024-11-02T22:23:04.821216</EPOCH><MEAN_MOTION>13.17646767</MEAN_MOTION><ECCENTRICITY>.0001186</ECCENTRICITY><INCLINATION>87.9075</INCLINATION><RA_OF_ASC_NODE>123.6448</RA_OF_ASC_NODE><ARG_OF_PERICENTER>101.7244</ARG_OF_PERICENTER><MEAN_ANOMALY>258.4021</MEAN_ANOMALY></meanElements><tleParameters><EPHEMERIS_TYPE>0</EPHEMERIS_TYPE><CLASSIFICATION_TYPE>U</CLASSIFICATION_TYPE><NORAD_CAT_ID>49097</NORAD_CAT_ID><ELEMENT_SET_NO>999</ELEMENT_SET_NO><REV_AT_EPOCH>15576</REV_AT_EPOCH><BSTAR>.33301E-3</BSTAR><MEAN_MOTION_DOT>.142E-5</MEAN_MOTION_DOT><MEAN_MOTION_DDOT>0</MEAN_MOTION_DDOT></tleParameters></data></segment></body></omm>
<omm id="CCSDS_OMM_VERS" version="2.0">
<header><CREATION_DATE/><ORIGINATOR/></header><body><segment><metadata><OBJECT_NAME>ONEWEB-0312</OBJECT_NAME><OBJECT_ID>2021-075Z</OBJECT_ID><CENTER_NAME>EARTH</CENTER_NAME><REF_FRAME>TEME</REF_FRAME><TIME_SYSTEM>UTC</TIME_SYSTEM><MEAN_ELEMENT_THEORY>SGP4</MEAN_ELEMENT_THEORY></metadata><data><meanElements><EPOCH>2024-11-02T20:55:35.543424</EPOCH><MEAN_MOTION>13.17646776</MEAN_MOTION><ECCENTRICITY>.0001034</ECCENTRICITY><INCLINATION>87.9069</INCLINATION><RA_OF_ASC_NODE>123.6888</RA_OF_ASC_NODE><ARG_OF_PERICENTER>80.2414</ARG_OF_PERICENTER><MEAN_ANOMALY>279.8834</MEAN_ANOMALY></meanElements><tleParameters><EPHEMERIS_TYPE>0</EPHEMERIS_TYPE><CLASSIFICATION_TYPE>U</CLASSIFICATION_TYPE><NORAD_CAT_ID>49098</NORAD_CAT_ID><ELEMENT_SET_NO>999</ELEMENT_SET_NO><REV_AT_EPOCH>15573</REV_AT_EPOCH><BSTAR>.33685E-3</BSTAR><MEAN_MOTION_DOT>.144E-5</MEAN_MOTION_DOT><MEAN_MOTION_DDOT>0</MEAN_MOTION_DDOT></tleParameters></data></segment></body></omm>
<omm id="CCSDS_OMM_VERS" version="2.0">
<header><CREATION_DATE/><ORIGINATOR/></header><body><segment><metadata><OBJECT_NAME>ONEWEB-0313</OBJECT_NAME><OBJECT_ID>2021-075AA</OBJECT_ID><CENTER_NAME>EARTH</CENTER_NAME><REF_FRAME>TEME</REF_FRAME><TIME_SYSTEM>UTC</TIME_SYSTEM><MEAN_ELEMENT_THEORY>SGP4</MEAN_ELEMENT_THEORY></metadata><data><meanElements><EPOCH>2024-11-02T21:00:45.991584</EPOCH><MEAN_MOTION>13.16612840</MEAN_MOTION><ECCENTRICITY>.0000509</ECCENTRICITY><INCLINATION>87.9046</INCLINATION><RA_OF_ASC_NODE>123.7003</RA_OF_ASC_NODE><ARG_OF_PERICENTER>78.8407</ARG_OF_PERICENTER><MEAN_ANOMALY>281.2781</MEAN_ANOMALY></meanElements><tleParameters><EPHEMERIS_TYPE>0</EPHEMERIS_TYPE><CLASSIFICATION_TYPE>U</CLASSIFICATION_TYPE><NORAD_CAT_ID>49099</NORAD_CAT_ID><ELEMENT_SET_NO>999</ELEMENT_SET_NO><REV_AT_EPOCH>15572</REV_AT_EPOCH><BSTAR>.12021E+0</BSTAR><MEAN_MOTION_DOT>.46212E-3</MEAN_MOTION_DOT><MEAN_MOTION_DDOT>0</MEAN_MOTION_DDOT></tleParameters></data></segment></body></omm>
<omm id="CCSDS_OMM_VERS" version="2.0">
<header><CREATION_DATE/><ORIGINATOR/></header><body><segment><metadata><OBJECT_NAME>ONEWEB-0314</OBJECT_NAME><OBJECT_ID>2021-075AB</OBJECT_ID><CENTER_NAME>EARTH</CENTER_NAME><REF_FRAME>TEME</REF_FRAME><TIME_SYSTEM>UTC</TIME_SYSTEM><MEAN_ELEMENT_THEORY>SGP4</MEAN_ELEMENT_THEORY></metadata><data><meanElements><EPOCH>2024-11-02T22:03:37.851840</EPOCH><MEAN_MOTION>13.17649147</MEAN_MOTION><ECCENTRICITY>.0001072</ECCENTRICITY><INCLINATION>87.9071</INCLINATION><RA_OF_ASC_NODE>123.6351</RA_OF_ASC_NODE><ARG_OF_PERICENTER>87.1538</ARG_OF_PERICENTER><MEAN_ANOMALY>272.9717</MEAN_ANOMALY></meanElements><tleParameters><EPHEMERIS_TYPE>0</EPHEMERIS_TYPE><CLASSIFICATION_TYPE>U</CLASSIFICATION_TYPE><NORAD_CAT_ID>49100</NORAD_CAT_ID><ELEMENT_SET_NO>999</ELEMENT_SET_NO><REV_AT_EPOCH>15570</REV_AT_EPOCH><BSTAR>.18704E-3</BSTAR><MEAN_MOTION_DOT>.86E-6</MEAN_MOTION_DOT><MEAN_MOTION_DDOT>0</MEAN_MOTION_DDOT></tleParameters></data></segment></body></omm>
<omm id="CCSDS_OMM_VERS" version="2.0">
<header><CREATION_DATE/><ORIGINATOR/></header><body><segment><metadata><OBJECT_NAME>ONEWEB-0315</OBJECT_NAME><OBJECT_ID>2021-075AC</OBJECT_ID><CENTER_NAME>EARTH</CENTER_NAME><REF_FRAME>TEME</REF_FRAME><TIME_SYSTEM>UTC</TIME_SYSTEM><MEAN_ELEMENT_THEORY>SGP4</MEAN_ELEMENT_THEORY></metadata><data><meanElements><EPOCH>2024-11-02T21:56:05.259264</EPOCH><MEAN_MOTION>13.12441920</MEAN_MOTION><ECCENTRICITY>.000145</ECCENTRICITY><INCLINATION>87.8841</INCLINATION><RA_OF_ASC_NODE>108.4046</RA_OF_ASC_NODE><ARG_OF_PERICENTER>106.4636</ARG_OF_PERICENTER><MEAN_ANOMALY>253.6652</MEAN_ANOMALY></meanElements><tleParameters><EPHEMERIS_TYPE>0</EPHEMERIS_TYPE><CLASSIFICATION_TYPE>U</CLASSIFICATION_TYPE><NORAD_CAT_ID>49101</NORAD_CAT_ID><ELEMENT_SET_NO>999</ELEMENT_SET_NO><REV_AT_EPOCH>15761</REV_AT_EPOCH><BSTAR>.8949E-3</BSTAR><MEAN_MOTION_DOT>.335E-5</MEAN_MOTION_DOT><MEAN_MOTION_DDOT>0</MEAN_MOTION_DDOT></tleParameters></data></segment></body></omm>
<omm id="CCSDS_OMM_VERS" version="2.0">
<header><CREATION_DATE/><ORIGINATOR/></header><body><segment><metadata><OBJECT_NAME>ONEWEB-0316</OBJECT_NAME><OBJECT_ID>2021-075AD</OBJECT_ID><CENTER_NAME>EARTH</CENTER_NAME><REF_FRAME>TEME</REF_FRAME><TIME_SYSTEM>UTC</TIME_SYSTEM><MEAN_ELEMENT_THEORY>SGP4</MEAN_ELEMENT_THEORY></metadata><data><meanElements><EPOCH>2024-11-02T22:18:56.174112</EPOCH><MEAN_MOTION>13.18683858</MEAN_MOTION><ECCENTRICITY>.0001403</ECCENTRICITY><INCLINATION>87.9079</INCLINATION><RA_OF_ASC_NODE>93.1245</RA_OF_ASC_NODE><ARG_OF_PERICENTER>98.8738</ARG_OF_PERICENTER><MEAN_ANOMALY>261.2553</MEAN_ANOMALY></meanElements><tleParameters><EPHEMERIS_TYPE>0</EPHEMERIS_TYPE><CLASSIFICATION_TYPE>U</CLASSIFICATION_TYPE><NORAD_CAT_ID>49102</NORAD_CAT_ID><ELEMENT_SET_NO>999</ELEMENT_SET_NO><REV_AT_EPOCH>15928</REV_AT_EPOCH><BSTAR>.13087E-3</BSTAR><MEAN_MOTION_DOT>.65E-6</MEAN_MOTION_DOT><MEAN_MOTION_DDOT>0</MEAN_MOTION_DDOT></tleParameters></data></segment></body></omm>
<omm id="CCSDS_OMM_VERS" version="2.0">
<header><CREATION_DATE/><ORIGINATOR/></header><body><segment><metadata><OBJECT_NAME>ONEWEB-0317</OBJECT_NAME><OBJECT_ID>2021-075AE</OBJECT_ID><CENTER_NAME>EARTH</CENTER_NAME><REF_FRAME>TEME</REF_FRAME><TIME_SYSTEM>UTC</TIME_SYSTEM><MEAN_ELEMENT_THEORY>SGP4</MEAN_ELEMENT_THEORY></metadata><data><meanElements><EPOCH>2024-11-02T21:46:44.612256</EPOCH><MEAN_MOTION>13.12443318</MEAN_MOTION><ECCENTRICITY>.0001836</ECCENTRICITY><INCLINATION>87.8844</INCLINATION><RA_OF_ASC_NODE>108.4179</RA_OF_ASC_NODE><ARG_OF_PERICENTER>76.1975</ARG_OF_PERICENTER><MEAN_ANOMALY>283.9358</MEAN_ANOMALY></meanElements><tleParameters><EPHEMERIS_TYPE>0</EPHEMERIS_TYPE><CLASSIFICATION_TYPE>U</CLASSIFICATION_TYPE><NORAD_CAT_ID>49103</NORAD_CAT_ID><ELEMENT_SET_NO>999</ELEMENT_SET_NO><REV_AT_EPOCH>15763</REV_AT_EPOCH><BSTAR>.13796E-2</BSTAR><MEAN_MOTION_DOT>.509E-5</MEAN_MOTION_DOT><MEAN_MOTION_DDOT>0</MEAN_MOTION_DDOT></tleParameters></data></segment></body></omm>
<omm id="CCSDS_OMM_VERS" version="2.0">
<header><CREATION_DATE/><ORIGINATOR/></header><body><segment><metadata><OBJECT_NAME>ONEWEB-0318</OBJECT_NAME><OBJECT_ID>2021-075AF</OBJECT_ID><CENTER_NAME>EARTH</CENTER_NAME><REF_FRAME>TEME</REF_FRAME><TIME_SYSTEM>UTC</TIME_SYSTEM><MEAN_ELEMENT_THEORY>SGP4</MEAN_ELEMENT_THEORY></metadata><data><meanElements><EPOCH>2024-11-02T22:14:24.032256</EPOCH><MEAN_MOTION>13.18684882</MEAN_MOTION><ECCENTRICITY>.0001418</ECCENTRICITY><INCLINATION>87.9076</INCLINATION><RA_OF_ASC_NODE>93.1153</RA_OF_ASC_NODE><ARG_OF_PERICENTER>104.2719</ARG_OF_PERICENTER><MEAN_ANOMALY>255.8570</MEAN_ANOMALY></meanElements><tleParameters><EPHEMERIS_TYPE>0</EPHEMERIS_TYPE><CLASSIFICATION_TYPE>U</CLASSIFICATION_TYPE><NORAD_CAT_ID>49104</NORAD_CAT_ID><ELEMENT_SET_NO>999</ELEMENT_SET_NO><REV_AT_EPOCH>15924</REV_AT_EPOCH><BSTAR>-.52655E-4</BSTAR><MEAN_MOTION_DOT>-.8E-7</MEAN_MOTION_DOT><MEAN_MOTION_DDOT>0</MEAN_MOTION_DDOT></tleParameters></data></segment></body></omm>

</ndm>
