ONEWEB-0311             
1 49097U 21075Y   24307.93269469  .00000142  00000+0  33301-3 0  9997
2 49097  87.9075 123.6448 0001186 101.7244 258.4021 13.17646767155764
ONEWEB-0312             
1 49098U 21075Z   24307.87193916  .00000144  00000+0  33685-3 0  9991
2 49098  87.9069 123.6888 0001034  80.2414 279.8834 13.17646776155734
ONEWEB-0313             
1 49099U 21075AA  24307.87553231  .00046212  00000+0  12021+0 0  9995
2 49099  87.9046 123.7003 0000509  78.8407 281.2781 13.16612840155722
ONEWEB-0314             
1 49100U 21075AB  24307.91918810  .00000086  00000+0  18704-3 0  9998
2 49100  87.9071 123.6351 0001072  87.1538 272.9717 13.17649147155707
ONEWEB-0315             
1 49101U 21075AC  24307.91394976  .00000335  00000+0  89490-3 0  9997
2 49101  87.8841 108.4046 0001450 106.4636 253.6652 13.12441920157618
ONEWEB-0316             
1 49102U 21075AD  24307.92981683  .00000065  00000+0  13087-3 0  9995
2 49102  87.9079  93.1245 0001403  98.8738 261.2553 13.18683858159283
ONEWEB-0317             
1 49103U 21075AE  24307.90746079  .00000509  00000+0  13796-2 0  9991
2 49103  87.8844 108.4179 0001836  76.1975 283.9358 13.12443318157631
ONEWEB-0318             
1 49104U 21075AF  24307.92666704 -.00000008  00000+0 -52655-4 0  9995
2 49104  87.9076  93.1153 0001418 104.2719 255.8570 13.18684882159249
